start=new Date('2022-08-29T00:00:00.000Z').valueOf();
sats=[{"OBJECT_ID":"2021-027AD","INCLINATION":"53.0558","REV_AT_EPOCH":"7833","NORAD_CAT_ID":"48119","REF_FRAME":"TEME","LAUNCH_DATE":"2021-04-07","CLASSIFICATION_TYPE":"U","OBJECT_NAME":"STARLINK-2459","DECAY_DATE":null,"ARG_OF_PERICENTER":"63.9782","EPOCH":"2022-08-28T05:06:16.244928","PERIOD":"95.592","RCS_SIZE":"LARGE","SITE":"AFETR","ELEMENT_SET_NO":"999","MEAN_MOTION_DDOT":"0.0000000000000","OBJECT_TYPE":"PAYLOAD","COUNTRY_CODE":"US","TLE_LINE2":"2 48119  53.0558 180.3061 0001981  63.9782 296.1411 15.06405570 78332","ECCENTRICITY":"0.00019810","MEAN_MOTION_DOT":"0.00001056","SEMIMAJOR_AXIS":"6925.331","GP_ID":"211177508","MEAN_ANOMALY":"296.1411","TLE_LINE1":"1 48119U 21027AD  22240.21268802  .00001056  00000-0  89753-4 0  9992","APOAPSIS":"548.568","CENTER_NAME":"EARTH","FILE":"3549654","PERIAPSIS":"545.825","BSTAR":"0.00008975300000","MEAN_ELEMENT_THEORY":"SGP4","RA_OF_ASC_NODE":"180.3061","EPHEMERIS_TYPE":"0","TIME_SYSTEM":"UTC","MEAN_MOTION":"15.06405570"},{"MEAN_ANOMALY":"288.9496","CENTER_NAME":"EARTH","TLE_LINE1":"1 48120U 21027AE  22240.61724531  .00002277  00000-0  17171-3 0  9994","APOAPSIS":"548.228","PERIAPSIS":"546.182","FILE":"3550014","EPHEMERIS_TYPE":"0","TIME_SYSTEM":"UTC","MEAN_MOTION":"15.06402700","MEAN_ELEMENT_THEORY":"SGP4","BSTAR":"0.00017171000000","RA_OF_ASC_NODE":"198.4975","ELEMENT_SET_NO":"999","TLE_LINE2":"2 48120  53.0545 198.4975 0001477  71.1654 288.9496 15.06402700 78135","MEAN_MOTION_DDOT":"0.0000000000000","OBJECT_TYPE":"PAYLOAD","COUNTRY_CODE":"US","MEAN_MOTION_DOT":"0.00002277","SEMIMAJOR_AXIS":"6925.340","ECCENTRICITY":"0.00014770","GP_ID":"211211217","OBJECT_NAME":"STARLINK-2460","CLASSIFICATION_TYPE":"U","ARG_OF_PERICENTER":"71.1654","EPOCH":"2022-08-28T14:48:49.994784","DECAY_DATE":null,"SITE":"AFETR","PERIOD":"95.592","RCS_SIZE":"LARGE","INCLINATION":"53.0545","OBJECT_ID":"2021-027AE","REV_AT_EPOCH":"7813","NORAD_CAT_ID":"48120","REF_FRAME":"TEME","LAUNCH_DATE":"2021-04-07"},{"REF_FRAME":"TEME","LAUNCH_DATE":"2021-04-07","INCLINATION":"53.0545","OBJECT_ID":"2021-027AF","REV_AT_EPOCH":"7820","NORAD_CAT_ID":"48121","ARG_OF_PERICENTER":"85.6019","EPOCH":"2022-08-28T06:10:01.012224","DECAY_DATE":null,"SITE":"AFETR","PERIOD":"95.591","RCS_SIZE":"LARGE","OBJECT_NAME":"STARLINK-2462","CLASSIFICATION_TYPE":"U","MEAN_MOTION_DOT":"0.00000492","SEMIMAJOR_AXIS":"6925.315","ECCENTRICITY":"0.00015880","GP_ID":"211178510","ELEMENT_SET_NO":"999","TLE_LINE2":"2 48121  53.0545 190.1103 0001588  85.6019 274.5151 15.06410821 78206","MEAN_MOTION_DDOT":"0.0000000000000","COUNTRY_CODE":"US","OBJECT_TYPE":"PAYLOAD","FILE":"3549654","PERIAPSIS":"546.081","TIME_SYSTEM":"UTC","EPHEMERIS_TYPE":"0","MEAN_MOTION":"15.06410821","MEAN_ELEMENT_THEORY":"SGP4","BSTAR":"0.00005190800000","RA_OF_ASC_NODE":"190.1103","MEAN_ANOMALY":"274.5151","CENTER_NAME":"EARTH","TLE_LINE1":"1 48121U 21027AF  22240.25695616  .00000492  00000-0  51908-4 0  9990","APOAPSIS":"548.280"},{"INCLINATION":"53.0542","OBJECT_ID":"2021-027AG","NORAD_CAT_ID":"48122","REV_AT_EPOCH":"7828","REF_FRAME":"TEME","LAUNCH_DATE":"2021-04-07","OBJECT_NAME":"STARLINK-2463","CLASSIFICATION_TYPE":"U","EPOCH":"2022-08-28T06:08:00.322656","ARG_OF_PERICENTER":"64.9690","DECAY_DATE":null,"SITE":"AFETR","RCS_SIZE":"LARGE","PERIOD":"95.592","ELEMENT_SET_NO":"999","TLE_LINE2":"2 48122  53.0542 185.0841 0001736  64.9690 295.1479 15.06396752 78282","OBJECT_TYPE":"PAYLOAD","COUNTRY_CODE":"US","MEAN_MOTION_DDOT":"0.0000000000000","SEMIMAJOR_AXIS":"6925.359","MEAN_MOTION_DOT":"0.00000772","ECCENTRICITY":"0.00017360","GP_ID":"211177258","MEAN_ANOMALY":"295.1479","CENTER_NAME":"EARTH","APOAPSIS":"548.426","TLE_LINE1":"1 48122U 21027AG  22240.25555929  .00000772  00000-0  70724-4 0  9991","PERIAPSIS":"546.021","FILE":"3549654","MEAN_MOTION":"15.06396752","EPHEMERIS_TYPE":"0","TIME_SYSTEM":"UTC","RA_OF_ASC_NODE":"185.0841","MEAN_ELEMENT_THEORY":"SGP4","BSTAR":"0.00007072400000"},{"REF_FRAME":"TEME","LAUNCH_DATE":"2021-04-07","INCLINATION":"53.0539","OBJECT_ID":"2021-027AH","REV_AT_EPOCH":"7834","NORAD_CAT_ID":"48123","ARG_OF_PERICENTER":"69.6907","EPOCH":"2022-08-28T04:46:24.394080","DECAY_DATE":null,"SITE":"AFETR","PERIOD":"95.592","RCS_SIZE":"LARGE","OBJECT_NAME":"STARLINK-2464","CLASSIFICATION_TYPE":"U","MEAN_MOTION_DOT":"0.00000773","SEMIMAJOR_AXIS":"6925.335","ECCENTRICITY":"0.00016700","GP_ID":"211178008","ELEMENT_SET_NO":"999","TLE_LINE2":"2 48123  53.0539 180.3790 0001670  69.6907 290.4261 15.06404514 78340","MEAN_MOTION_DDOT":"0.0000000000000","COUNTRY_CODE":"US","OBJECT_TYPE":"PAYLOAD","FILE":"3549654","PERIAPSIS":"546.043","EPHEMERIS_TYPE":"0","TIME_SYSTEM":"UTC","MEAN_MOTION":"15.06404514","BSTAR":"0.00007075100000","MEAN_ELEMENT_THEORY":"SGP4","RA_OF_ASC_NODE":"180.3790","MEAN_ANOMALY":"290.4261","CENTER_NAME":"EARTH","APOAPSIS":"548.356","TLE_LINE1":"1 48123U 21027AH  22240.19889345  .00000773  00000-0  70751-4 0  9998"},{"LAUNCH_DATE":"2021-04-07","REF_FRAME":"TEME","REV_AT_EPOCH":"7825","NORAD_CAT_ID":"48124","OBJECT_ID":"2021-027AJ","INCLINATION":"53.0532","PERIOD":"95.592","RCS_SIZE":"LARGE","SITE":"AFETR","DECAY_DATE":null,"ARG_OF_PERICENTER":"72.7566","EPOCH":"2022-08-28T14:18:18.546336","CLASSIFICATION_TYPE":"U","OBJECT_NAME":"STARLINK-2465","GP_ID":"211211718","ECCENTRICITY":"0.00018490","MEAN_MOTION_DOT":"0.00000914","SEMIMAJOR_AXIS":"6925.321","MEAN_MOTION_DDOT":"0.0000000000000","OBJECT_TYPE":"PAYLOAD","COUNTRY_CODE":"US","TLE_LINE2":"2 48124  53.0532 188.5947 0001849  72.7566 287.3625 15.06409048 78258","ELEMENT_SET_NO":"999","BSTAR":"0.00008026900000","MEAN_ELEMENT_THEORY":"SGP4","RA_OF_ASC_NODE":"188.5947","EPHEMERIS_TYPE":"0","TIME_SYSTEM":"UTC","MEAN_MOTION":"15.06409048","PERIAPSIS":"545.905","FILE":"3550014","TLE_LINE1":"1 48124U 21027AJ  22240.59604799  .00000914  00000-0  80269-4 0  9993","APOAPSIS":"548.466","CENTER_NAME":"EARTH","MEAN_ANOMALY":"287.3625"},{"ELEMENT_SET_NO":"999","TLE_LINE2":"2 48125  53.0546 198.7668 0001542  84.6469 275.4696 15.06401858 78124","COUNTRY_CODE":"US","OBJECT_TYPE":"PAYLOAD","MEAN_MOTION_DDOT":"0.0000000000000","SEMIMAJOR_AXIS":"6925.343","MEAN_MOTION_DOT":"0.00000197","ECCENTRICITY":"0.00015420","GP_ID":"211211969","MEAN_ANOMALY":"275.4696","CENTER_NAME":"EARTH","TLE_LINE1":"1 48125U 21027AK  22240.60990472  .00000197  00000-0  32111-4 0  9998","APOAPSIS":"548.276","FILE":"3550014","PERIAPSIS":"546.140","MEAN_MOTION":"15.06401858","TIME_SYSTEM":"UTC","EPHEMERIS_TYPE":"0","RA_OF_ASC_NODE":"198.7668","BSTAR":"0.00003211100000","MEAN_ELEMENT_THEORY":"SGP4","INCLINATION":"53.0546","OBJECT_ID":"2021-027AK","NORAD_CAT_ID":"48125","REV_AT_EPOCH":"7812","REF_FRAME":"TEME","LAUNCH_DATE":"2021-04-07","OBJECT_NAME":"STARLINK-2466","CLASSIFICATION_TYPE":"U","EPOCH":"2022-08-28T14:38:15.767808","ARG_OF_PERICENTER":"84.6469","DECAY_DATE":null,"SITE":"AFETR","RCS_SIZE":"LARGE","PERIOD":"95.592"},{"REV_AT_EPOCH":"7833","NORAD_CAT_ID":"48126","INCLINATION":"53.0553","OBJECT_ID":"2021-027AL","LAUNCH_DATE":"2021-04-07","REF_FRAME":"TEME","OBJECT_NAME":"STARLINK-2467","CLASSIFICATION_TYPE":"U","SITE":"AFETR","PERIOD":"95.592","RCS_SIZE":"LARGE","ARG_OF_PERICENTER":"68.5439","EPOCH":"2022-08-28T02:23:05.731296","DECAY_DATE":null,"TLE_LINE2":"2 48126  53.0553 180.8157 0001806  68.5439 291.5742 15.06397573 78331","MEAN_MOTION_DDOT":"0.0000000000000","COUNTRY_CODE":"US","OBJECT_TYPE":"PAYLOAD","ELEMENT_SET_NO":"999","GP_ID":"211177758","MEAN_MOTION_DOT":"0.00003342","SEMIMAJOR_AXIS":"6925.356","ECCENTRICITY":"0.00018060","CENTER_NAME":"EARTH","APOAPSIS":"548.472","TLE_LINE1":"1 48126U 21027AL  22240.09937189  .00003342  00000-0  24318-3 0  9992","MEAN_ANOMALY":"291.5742","EPHEMERIS_TYPE":"0","TIME_SYSTEM":"UTC","MEAN_MOTION":"15.06397573","BSTAR":"0.00024318000000","MEAN_ELEMENT_THEORY":"SGP4","RA_OF_ASC_NODE":"180.8157","FILE":"3549654","PERIAPSIS":"545.970"},{"OBJECT_ID":"2021-027AM","INCLINATION":"53.0551","NORAD_CAT_ID":"48127","REV_AT_EPOCH":"7812","REF_FRAME":"TEME","LAUNCH_DATE":"2021-04-07","CLASSIFICATION_TYPE":"U","OBJECT_NAME":"STARLINK-2468","DECAY_DATE":null,"EPOCH":"2022-08-28T14:54:08.091936","ARG_OF_PERICENTER":"72.0107","RCS_SIZE":"LARGE","PERIOD":"95.592","SITE":"AFETR","ELEMENT_SET_NO":"999","OBJECT_TYPE":"PAYLOAD","COUNTRY_CODE":"US","MEAN_MOTION_DDOT":"0.0000000000000","TLE_LINE2":"2 48127  53.0551 198.4859 0001719  72.0107 288.1069 15.06405528 78120","ECCENTRICITY":"0.00017190","SEMIMAJOR_AXIS":"6925.332","MEAN_MOTION_DOT":"0.00002397","GP_ID":"211210968","MEAN_ANOMALY":"288.1069","TLE_LINE1":"1 48127U 21027AM  22240.62092699  .00002397  00000-0  17972-3 0  9997","APOAPSIS":"548.387","CENTER_NAME":"EARTH","FILE":"3550014","PERIAPSIS":"546.006","RA_OF_ASC_NODE":"198.4859","BSTAR":"0.00017972000000","MEAN_ELEMENT_THEORY":"SGP4","MEAN_MOTION":"15.06405528","TIME_SYSTEM":"UTC","EPHEMERIS_TYPE":"0"},{"GP_ID":"211211218","SEMIMAJOR_AXIS":"6925.347","MEAN_MOTION_DOT":"0.00001283","ECCENTRICITY":"0.00015800","TLE_LINE2":"2 48128  53.0557 127.4651 0001580  80.2262 279.8905 15.06400351 79135","COUNTRY_CODE":"US","OBJECT_TYPE":"PAYLOAD","MEAN_MOTION_DDOT":"0.0000000000000","ELEMENT_SET_NO":"999","MEAN_MOTION":"15.06400351","TIME_SYSTEM":"UTC","EPHEMERIS_TYPE":"0","RA_OF_ASC_NODE":"127.4651","BSTAR":"0.00010504000000","MEAN_ELEMENT_THEORY":"SGP4","PERIAPSIS":"546.118","FILE":"3550014","CENTER_NAME":"EARTH","TLE_LINE1":"1 48128U 21027AN  22240.86698139  .00001283  00000-0  10504-3 0  9992","APOAPSIS":"548.307","MEAN_ANOMALY":"279.8905","LAUNCH_DATE":"2021-04-07","REF_FRAME":"TEME","NORAD_CAT_ID":"48128","REV_AT_EPOCH":"7913","INCLINATION":"53.0557","OBJECT_ID":"2021-027AN","SITE":"AFETR","RCS_SIZE":"LARGE","PERIOD":"95.592","EPOCH":"2022-08-28T20:48:27.192096","ARG_OF_PERICENTER":"80.2262","DECAY_DATE":null,"OBJECT_NAME":"STARLINK-2469","CLASSIFICATION_TYPE":"U"}];
